{"features":[{"geometry":{"coordinates":[-77.4874,39.0438],"type":"Point"},"properties":{"acreage":42.0,"announced":null,"application_filed":null,"approved":null,"building_sqft":490000.0,"city":"Ashburn","confidence_status":null,"construction_start":null,"county_fips":"51107","county_name":"Loudoun","developer":null,"evidence_level":"reported","expanding":false,"expected_in_service":null,"facility_mw":null,"id":"gwa-01m47854008j5vt37xkj5ag72d","investment_basis":null,"investment_usd":null,"iso_rto":"PJM","it_mw":36.0,"lat":39.0438,"latest_event":"first_reported","latest_event_date":"2026-10","lon":-77.4874,"mw_as_stated":"36 MW of critical IT load","mw_basis":"it","mw_display":36.0,"n_sources":2,"name":"Example Colocation Ashburn Campus (Ashburn, VA)","operating_since":"2026-10","operator":"Example Colocation","owner":null,"precision":"footprint","purpose":"colocation","record_type":"campus","review_state":"machine","state":"VA","status":"operating","status_group":"op","tenant":null,"updated_at":"2026-10-06T00:00:00Z","url":"https://moonspells.dev/atlas/facility/gwa-01m47854008j5vt37xkj5ag72d/","utility_name":"Example Electric Cooperative","utility_request_mw":null},"type":"Feature"},{"geometry":{"coordinates":[-98.792034,29.420749],"type":"Point"},"properties":{"acreage":null,"announced":null,"application_filed":"2026","approved":null,"building_sqft":174812.0,"city":"San Antonio","confidence_status":null,"construction_start":null,"county_fips":"48029","county_name":"Bexar","developer":null,"evidence_level":"confirmed","expanding":false,"expected_in_service":"2028-03-30","facility_mw":null,"id":"gwa-01m4785401mdczvghe70mfz68q","investment_basis":"permit_construction_estimate","investment_usd":448000000.0,"iso_rto":"ERCOT","it_mw":96.0,"lat":29.420749,"latest_event":"application_filed","latest_event_date":"2026","lon":-98.792034,"mw_as_stated":"96MW of data modules","mw_basis":"it","mw_display":96.0,"n_sources":1,"name":"Vantage Data Centers TX12 (San Antonio, TX)","operating_since":null,"operator":"Vantage Data Centers","owner":null,"precision":"street","purpose":"unknown","record_type":"project","review_state":"machine","state":"TX","status":"proposed","status_group":"pl","tenant":null,"updated_at":"2026-10-06T00:00:00Z","url":"https://moonspells.dev/atlas/facility/gwa-01m4785401mdczvghe70mfz68q/","utility_name":null,"utility_request_mw":null},"type":"Feature"},{"geometry":{"coordinates":[-104.799155,41.128275],"type":"Point"},"properties":{"acreage":null,"announced":"2026-08","application_filed":null,"approved":null,"building_sqft":null,"city":"Cheyenne","confidence_status":null,"construction_start":null,"county_fips":"56021","county_name":"Laramie","developer":"Example Frontier Compute","evidence_level":"rumor","expanding":false,"expected_in_service":null,"facility_mw":null,"id":"gwa-01m4785402010x3qyg2b2kxj8b","investment_basis":null,"investment_usd":null,"iso_rto":"unknown","it_mw":null,"lat":41.128275,"latest_event":"announced","latest_event_date":"2026-08","lon":-104.799155,"mw_as_stated":"up to 1 GW","mw_basis":"utility_request","mw_display":1000.0,"n_sources":1,"name":"Example Frontier AI Project (Cheyenne, WY)","operating_since":null,"operator":null,"owner":null,"precision":"locality","purpose":"ai_training","record_type":"project","review_state":"machine","state":"WY","status":"announced","status_group":"pl","tenant":null,"updated_at":"2026-10-06T00:00:00Z","url":"https://moonspells.dev/atlas/facility/gwa-01m4785402010x3qyg2b2kxj8b/","utility_name":null,"utility_request_mw":1000.0},"type":"Feature"},{"geometry":{"coordinates":[-112.4,33.43],"type":"Point"},"properties":{"acreage":160.0,"announced":"2024-02","application_filed":null,"approved":null,"building_sqft":null,"city":"Goodyear","confidence_status":null,"construction_start":"2026-03","county_fips":"04013","county_name":"Maricopa","developer":null,"evidence_level":"confirmed","expanding":true,"expected_in_service":"2027-Q4","facility_mw":null,"id":"gwa-01m4785403r3skww5dz30ye0t4","investment_basis":"announced_total","investment_usd":1200000000.0,"iso_rto":"non-RTO-West","it_mw":120.0,"lat":33.43,"latest_event":"construction_start","latest_event_date":"2026-03","lon":-112.4,"mw_as_stated":"120 MW across two phases","mw_basis":"it","mw_display":120.0,"n_sources":2,"name":"Example Cloud Goodyear Campus (Goodyear, AZ)","operating_since":"2025-06","operator":"Example Cloud","owner":null,"precision":"site","purpose":"hyperscale_cloud","record_type":"campus","review_state":"machine","state":"AZ","status":"operating","status_group":"op","tenant":null,"updated_at":"2026-10-06T00:00:00Z","url":"https://moonspells.dev/atlas/facility/gwa-01m4785403r3skww5dz30ye0t4/","utility_name":null,"utility_request_mw":null},"type":"Feature"},{"geometry":{"coordinates":[-84.781236,33.351268],"type":"Point"},"properties":{"acreage":250.0,"announced":null,"application_filed":"2025-11-04","approved":null,"building_sqft":null,"city":null,"confidence_status":null,"construction_start":null,"county_fips":"13077","county_name":"Coweta","developer":"Example Digital Hub LLC","evidence_level":"confirmed","expanding":false,"expected_in_service":null,"facility_mw":null,"id":"gwa-01m4785404f6d8d33py7hy7ttf","investment_basis":null,"investment_usd":null,"iso_rto":"non-RTO-Southeast","it_mw":null,"lat":33.351268,"latest_event":"withdrawn","latest_event_date":"2026-05-12","lon":-84.781236,"mw_as_stated":"a 300 MW load request","mw_basis":"utility_request","mw_display":300.0,"n_sources":2,"name":"Example Digital Hub (Coweta County, GA)","operating_since":null,"operator":null,"owner":null,"precision":"county","purpose":"unknown","record_type":"project","review_state":"machine","state":"GA","status":"cancelled","status_group":"cx","tenant":null,"updated_at":"2026-10-06T00:00:00Z","url":"https://moonspells.dev/atlas/facility/gwa-01m4785404f6d8d33py7hy7ttf/","utility_name":null,"utility_request_mw":300.0},"type":"Feature"},{"geometry":null,"properties":{"acreage":null,"announced":null,"application_filed":"2026-06","approved":null,"building_sqft":null,"city":null,"confidence_status":null,"construction_start":null,"county_fips":null,"county_name":null,"developer":"Example Energy Campus LLC","evidence_level":"confirmed","expanding":false,"expected_in_service":null,"facility_mw":500.0,"id":"gwa-01m4785405ksmnvwymzaxynj4x","investment_basis":null,"investment_usd":null,"iso_rto":"ERCOT","it_mw":null,"lat":null,"latest_event":"paused","latest_event_date":"2026-09-21","lon":null,"mw_as_stated":"500 MW facility","mw_basis":"facility","mw_display":500.0,"n_sources":2,"name":"Example Energy Campus (TX)","operating_since":null,"operator":null,"owner":null,"precision":"state","purpose":"ai_inference","record_type":"project","review_state":"machine","state":"TX","status":"paused","status_group":"pa","tenant":null,"updated_at":"2026-10-06T00:00:00Z","url":"https://moonspells.dev/atlas/facility/gwa-01m4785405ksmnvwymzaxynj4x/","utility_name":null,"utility_request_mw":null},"type":"Feature"},{"geometry":{"coordinates":[-86.03,39.7],"type":"Point"},"properties":{"acreage":400.0,"announced":null,"application_filed":"2025-09-15","approved":null,"building_sqft":null,"city":"Indianapolis","confidence_status":null,"construction_start":null,"county_fips":"18097","county_name":"Marion","developer":"Example Land Partners","evidence_level":"confirmed","expanding":false,"expected_in_service":null,"facility_mw":null,"id":"gwa-01m4785406m5v7k500fkxp056f","investment_basis":"filing","investment_usd":2500000000.0,"iso_rto":"MISO","it_mw":null,"lat":39.7,"latest_event":"denied","latest_event_date":"2025-10-20","lon":-86.03,"mw_as_stated":null,"mw_basis":null,"mw_display":null,"n_sources":2,"name":"Example Data Campus (Indianapolis, IN)","operating_since":null,"operator":null,"owner":null,"precision":"address","purpose":"unknown","record_type":"project","review_state":"machine","state":"IN","status":"denied","status_group":"cx","tenant":null,"updated_at":"2026-10-06T00:00:00Z","url":"https://moonspells.dev/atlas/facility/gwa-01m4785406m5v7k500fkxp056f/","utility_name":null,"utility_request_mw":null},"type":"Feature"}],"type":"FeatureCollection"}